OPTICUBE 04             
1 41851U 16067D   24231.06665936  .00008938  00000+0  65974-3 0  9993
2 41851  98.0828  38.6382 0017332 204.6176 155.4223 15.03396832424538
AEROCUBE 8D             
1 41852U 16067E   24231.44729130  .00017336  00000+0  10956-2 0  9994
2 41852  98.1106  44.1291 0004205 256.6747 103.4011 15.09109809424783
AEROCUBE 8C             
1 41853U 16067F   24231.46266038  .00017124  00000+0  10825-2 0  9990
2 41853  98.0929  42.5704 0007573 182.7092 177.4096 15.09085555424774
PROMETHEUS 2-1          
1 41854U 16067G   24231.44370618  .00041637  00000+0  19279-2 0  9997
2 41854  98.1010  50.9909 0011755 203.1886 156.8818 15.19926194425186
PROMETHEUS 2-3          
1 41855U 16067H   24231.04649026  .00041960  00000+0  19481-2 0  9990
2 41855  98.0946  49.9928 0010061 214.4263 145.6319 15.19847612425129
AALTO-1                 
1 42775U 17036L   24231.61567025  .00593583  14965-3  14612-2 0  9993
2 42775  97.0874 262.9255 0004220 208.2134 151.8914 15.96036088398950
CORVUS BC2              
1 42846U 17042X   24231.44349495  .00008785  00000+0  73938-3 0  9992
2 42846  97.3739  53.1071 0007943 199.7585 160.3332 14.98435676386769
CORVUS BC1              
1 42847U 17042Y   24231.06427364  .00011070  00000+0  92641-3 0  9996
2 42847  97.3752  53.1600 0007101 193.6085 166.4949 14.98599067386729
MIRATA                  
1 43015U 17073C   24231.19824894  .00051072  00000+0  21971-2 0  9994
2 43015  97.5868 115.3257 0161701  49.2825 312.2320 15.11344593365685
MAKERSAT 0              
1 43016U 17073D   24231.63266666  .00027979  00000+0  15096-2 0  9991
2 43016  97.5731 108.9313 0190666  71.5657 290.6190 15.00386167365268
GOMX-4B                 
1 43196U 18015E   24231.48194526  .00199065  00000+0  12296-2 0  9990
2 43196  97.6031  50.3811 0003591  75.6926 284.4737 15.76545537365290
GOMX-4A                 
1 43197U 18015F   24231.57785391  .12036390  27077-5  33718-3 0  9993
2 43197  97.5695  57.6561 0009227 255.6517 104.3760 16.44816160365796
SIRION PATHFINDER-2     
1 43759U 18099B   24231.40029121  .00012497  00000+0  91199-3 0  9990
2 43759  97.5247 285.8149 0012763  79.7272 280.5392 15.03761447311859
CORVUS BC4              
1 43767U 18099K   24231.72973065  .00010631  00000+0  79273-3 0  9996
2 43767  97.5089 283.1549 0012380 125.4026 234.8358 15.02991136311783
MOVE-II                 
1 43780U 18099Y   24231.08162885  .00053739  00000+0  25191-2 0  9995
2 43780  97.5168 293.6146 0007182 124.8586 235.3324 15.19466438312312
SPACEBEE-7              
1 43816U 18099BL  24231.12057838  .00036848  00000+0  20161-2 0  9995
2 43816  97.5450 294.1445 0010223  79.4579 280.7804 15.14108964311779
SPACEBEE-6              
1 43818U 18099BN  24231.77460701  .00079597  00000+0  27503-2 0  9990
2 43818  97.5360 301.3446 0006782  76.1811 284.0183 15.29592733312451
SHIELDS 1               
1 43850U 18104B   24231.48604129  .00026374  00000+0  65669-3 0  9996
2 43850  85.0185 240.7512 0010571 180.6480 179.4760 15.40058342315747
SONATE                  
1 44400U 19038Q   24231.03817260  .00047271  00000+0  12683-2 0  9994
2 44400  97.7133 228.0469 0012847 236.3302 123.6717 15.37730165283576
LUCKY-7                 
1 44406U 19038W   24231.51577906  .00086318  00000+0  14529-2 0  9999
2 44406  97.7016 233.6968 0010959 204.2151 155.8586 15.51352468284008
DUCHIFAT-3              
1 44854U 19089C   24231.82569648  .00034711  00000+0  16089-2 0  9993
2 44854  36.9568  28.0118 0005978 278.5978  81.4092 15.19201931257728
M2 PATHFINDER           
1 45727U 20037E   24231.06310683  .00008386  00000+0  71740-3 0  9992
2 45727  97.7808  47.2071 0009912 280.3542  79.6563 14.97823437225207
NETSAT-4                
1 46504U 20068U   24231.44660237  .00021552  00000+0  10932-2 0  9990
2 46504  97.8089 190.3539 0011446 139.6221 220.5863 15.16901721213603
NETSAT-3                
1 46505U 20068V   24231.45585887  .00021985  00000+0  11349-2 0  9992
2 46505  97.8067 189.7900 0010587 146.1711 214.0199 15.16288357213597
NETSAT-1                
1 46506U 20068W   24231.44704060  .00017976  00000+0  98165-3 0  9995
2 46506  97.8086 189.0979 0008994 154.6572 205.5102 15.14351482213548
NETSAT-2                
1 46507U 20068X   24231.40016379  .00020319  00000+0  10331-2 0  9994
2 46507  97.8072 189.9186 0008211 155.4543 204.7082 15.16860264213545
WILDTRACKCUBE-SIMBA     
1 47941U 21022K   24231.87321585  .00030054  00000+0  12407-2 0  9990
2 47941  97.4518 128.1479 0012108 285.9617  74.0286 15.23911380188000
GRBALPHA                
1 47959U 21022AD  24231.85263112  .00044264  00000+0  15400-2 0  9992
2 47959  97.4520 130.4337 0009954 273.9815  86.0287 15.29520959186975
BCCSAT-1                
1 48041U 21022AK  24231.81666603  .00316006  00000+0  27715-2 0  9991
2 48041  97.4499 141.7241 0008223 155.5087 204.6566 15.67842660187670
BEESAT-8                
1 48085U 21022AP  24231.22518730  .00065321  00000+0  17625-2 0  9991
2 48085  97.4707 134.1217 0007624 254.6649 105.3753 15.37521892187390
LEDSAT                  
1 49069U 21073D   24231.73970462  .00035182  00000+0  12865-2 0  9993
2 49069  97.4338 302.5504 0018598  65.7970 294.5211 15.27824453165993
ROBUSTA-1F (MTCUBE 2)   
1 53109U 22080E   24231.19335586 -.00000003  00000+0  00000+0 0  9994
2 53109  70.1264 170.5640 0007777  74.4970 285.6548  6.42584290 49148
SITRO-AIS 5 (KATYS)     
1 57176U 23091L   24231.81697952  .00017594  00000+0  10839-2 0  9998
2 57176  97.6084 283.5000 0015776 266.1213  93.8213 15.09933550 62944
SITRO-AIS 6 (CHIRKIN)   
1 57192U 23091AC  24231.86601299  .00017124  00000+0  10537-2 0  9994
2 57192  97.6080 283.5775 0015435 265.4504  94.4962 15.09987409 62955
SITRO-AIS 8 (ANOKHIN)   
1 57193U 23091AD  24231.81891984  .00018773  00000+0  11412-2 0  9996
2 57193  97.6080 283.6303 0015334 266.5438  93.4038 15.10410346 62956
SITRO-AIS 7 (FARTUSHNIY)
1 57194U 23091AE  24231.80681394  .00016927  00000+0  10434-2 0  9990
2 57194  97.6080 283.4946 0015315 266.3935  93.5543 15.09927358 62942
SITRO-AIS 10 (BURDAEV)  
1 57199U 23091AK  24231.84462133  .00021406  00000+0  12342-2 0  9995
2 57199  97.6087 284.7487 0010880 251.6907 108.3140 15.12348029 63020
SITRO-AIS 9 (SHCHUKIN)  
1 57201U 23091AM  24231.84376985  .00021246  00000+0  12259-2 0  9997
2 57201  97.6083 284.7226 0010851 251.5936 108.4114 15.12323061 63021
SITRO-AIS 12 (SMIRENNIY)
1 57204U 23091AQ  24231.86443466  .00020058  00000+0  11514-2 0  9994
2 57204  97.6094 284.8997 0010687 244.5691 115.4434 15.12521877 63038
SITRO-AIS 11 (SHEFFER)  
1 57208U 23091AU  24231.84638883  .00019787  00000+0  11327-2 0  9994
2 57208  97.6090 284.9111 0010706 245.5164 114.4951 15.12624889 63035
ROBUSTA-1E (ENSO)       
1 58470U 23185J   24231.82035982  .00034719  00000+0  13397-2 0  9990
2 58470  97.4220 297.9743 0012363  63.4059 296.8444 15.26139686 39683
SITRO-AIS 29            
1 59052U 24039B   24231.83596041  .00049761  00000+0  16082-2 0  9992
2 59052  97.3948 193.4879 0015106   8.0643 352.0839 15.31815988 26173
SITRO-AIS 30            
1 59053U 24039C   24231.83866974  .00048361  00000+0  15700-2 0  9999
2 59053  97.3946 193.4792 0015369   8.4377 351.7120 15.31674255 26163
SITRO-AIS 31            
1 59054U 24039D   24231.89122754  .00048537  00000+0  15658-2 0  9994
2 59054  97.3948 193.5624 0015185   8.3217 351.8274 15.31879332 26196
SITRO-AIS 33            
1 59055U 24039E   24231.87757161  .00049077  00000+0  15770-2 0  9994
2 59055  97.3950 193.5879 0015004   9.4993 350.6530 15.32005393 26185
SITRO-AIS 35            
1 59056U 24039F   24231.87301677  .00048788  00000+0  15674-2 0  9993
2 59056  97.3948 193.5904 0014972   9.8620 350.2913 15.32013785 26181
SITRO-AIS 32            
1 59057U 24039G   24231.88486926  .00049798  00000+0  16067-2 0  9995
2 59057  97.3950 193.5772 0015056   9.7209 350.4321 15.31870002 26181
SITRO-AIS 34            
1 59058U 24039H   24231.87864959  .00049538  00000+0  15925-2 0  9995
2 59058  97.3952 193.5880 0015010   9.7274 350.4255 15.31989495 26189
SITRO-AIS 36            
1 59059U 24039J   24231.86613465  .00050403  00000+0  16138-2 0  9999
2 59059  97.3950 193.6001 0014560   9.7981 350.3542 15.32120192 26188
SITRO-AIS 49            
1 59060U 24039K   24231.86844066  .00049680  00000+0  15958-2 0  9998
2 59060  97.3949 193.5971 0014603   9.2114 350.9393 15.32019729 26187
SITRO-AIS 50            
1 59061U 24039L   24231.85264948  .00048864  00000+0  15591-2 0  9999
2 59061  97.3948 193.6168 0014525   9.6538 350.4980 15.32239944 26183
SITRO-AIS 51            
1 59062U 24039M   24231.85257429  .00052267  00000+0  16658-2 0  9993
2 59062  97.3948 193.6165 0014480   9.8824 350.2700 15.32259379 26183
SITRO-AIS 52            
1 59063U 24039N   24231.84243462  .00050302  00000+0  15982-2 0  9992
2 59063  97.3949 193.6323 0014383   9.9164 350.2359 15.32370329 26180
SITRO-AIS 25            
1 59066U 24039R   24231.81616902  .00010763  00000+0  10050-2 0  9993
2 59066  95.3993 139.7991 0171497 127.0444 234.6602 14.83685518 25397
SITRO-AIS 26            
1 59067U 24039S   24231.81715935  .00010048  00000+0  93988-3 0  9998
2 59067  95.3992 139.7973 0171455 127.0721 234.6316 14.83635418 25395
SITRO-AIS 27            
1 59068U 24039T   24231.86806946  .00009611  00000+0  89579-3 0  9992
2 59068  95.3996 139.8627 0170986 126.6721 235.0354 14.83828012 25403
SITRO-AIS 28            
1 59071U 24039U   24231.86373755  .00009102  00000+0  84795-3 0  9993
2 59071  95.3997 139.8682 0170864 126.6500 235.0567 14.83870393 25404
GRBBETA                 
1 60237U 24128C   24231.53821371  .00010145  00000+0  88311-3 0  9991
2 60237  61.9953  24.3965 0013018 315.6432  44.3612 14.97354212  5934
OOV-CUBE (TUBSAT-30)    
1 60240U 24128F   24231.55377444  .00007193  00000+0  64253-3 0  9992
2 60240  61.9988  24.4885 0011756 302.3943  57.6007 14.96676775  5941
